BEIDOU-3 IGSO-3         
1 44709U 19073A   26136.81046384 -.00000217  00000+0  00000+0 0  9995
2 44709  54.8566 281.2355 0042953 189.4588 170.3676  1.00246251 24144
TIBA-1                  
1 44800U 19080A   26161.27563301  .00000173  00000+0  00000+0 0  9996
2 44800   0.0511 351.4900 0002096 111.8791 290.0371  1.00275021 23984
INMARSAT GX5            
1 44801U 19080B   26161.27077965  .00000092  00000+0  00000+0 0  9993
2 44801   0.0399  15.8252 0002340  61.4815 289.8423  1.00270825  6712
JCSAT-18 (KACIFIC 1)    
1 44868U 19091A   26161.21433981 -.00000183  00000+0  00000+0 0  9998
2 44868   0.0143 254.3475 0000388 325.2016 266.2051  1.00270114 23944
ELEKTRO-L 3             
1 44903U 19095A   26160.99855137 -.00000079  00000+0  00000+0 0  9991
2 44903   0.2372  81.3083 0001354 354.2056 258.2852  1.00272335 23636
SHIJIAN-20 (SJ-20)      
1 44910U 19097A   26160.27941615  .00000151  00000+0  00000+0 0  9999
2 44910   4.8978  75.1590 0013815  53.4150 274.4638  1.00275165 23612
TJS-5                   
1 44978U 20002A   26160.43444720 -.00000325  00000+0  00000+0 0  9998
2 44978   0.0306 290.7235 0007543 116.5233 114.4723  1.00273083 23631
GSAT-30                 
1 45026U 20005A   26160.14438434 -.00000147  00000+0  00000+0 0  9991
2 45026   0.0531 105.7770 0003408 339.2323 307.4766  1.00269386 23424
EUTELSAT KONNECT        
1 45027U 20005B   26160.12939094  .00000067  00000+0  00000+0 0  9998
2 45027   0.0706  99.2729 0001450 119.5425  92.5263  1.00273234 24250
JCSAT-17                
1 45245U 20013A   26161.29552922 -.00000306  00000+0  00000+0 0  9996
2 45245   5.3923 356.7942 0002684  79.8007  64.4674  1.00271054 23164
GEO-KOMPSAT-2B          
1 45246U 20013B   26160.79502436 -.00000326  00000+0  00000+0 0  9998
2 45246   0.0421 156.7250 0000357 146.7417   9.1642  1.00269964 23207
BEIDOU-3 G2             
1 45344U 20017A   26160.99933137 -.00000125  00000+0  00000+0 0  9996
2 45344   2.8486  47.2283 0002462  30.2444 260.7141  1.00273489 23186
AEHF-6 (USA 298)        
1 45465U 20022B   26161.29587589 -.00000281  00000+0  00000+0 0  9999
2 45465   2.5644 301.0465 0043161  17.2710 184.6024  1.00274457 22941
BEIDOU-3 G3             
1 45807U 20040A   26161.07668844 -.00000337  00000+0  00000+0 0  9991
2 45807   2.4287  67.4310 0002783 338.7722 350.4277  1.00271037 21992
APSTAR-6D               
1 45863U 20045A   26160.68998834 -.00000301  00000+0  00000+0 0  9990
2 45863   0.0502 104.3507 0002103 344.4035 191.7177  1.00268962 21789
KOREASAT 116            
1 45920U 20048A   26161.29162921 -.00000344  00000+0  00000+0 0  9992
2 45920   0.0062 327.4441 0000874 107.3392  45.0833  1.00271872 21575
EXPRESS 103             
1 45985U 20053A   26161.14493252 -.00000263  00000+0  00000+0 0  9997
2 45985   0.0170 275.5638 0000521 131.4994   0.1378  1.00272643 21575
EXPRESS 80              
1 45986U 20053B   26161.06000634 -.00000119  00000+0  00000+0 0  9997
2 45986   0.0170 307.9148 0002386 208.6614 203.4463  1.00272689 21550
BSAT-4B                 
1 46112U 20056A   26160.50619905 -.00000333  00000+0  00000+0 0  9995
2 46112   0.0407 168.6637 0003794 305.2086  76.0750  1.00273071 21314
MEV-2                   
1 46113U 20056B   26161.26843964  .00000007  00000+0  00000+0 0  9991
2 46113   0.0141 328.0803 0000371 180.5937 205.5905  1.00273655 80442
GALAXY 30 (G-30)        
1 46114U 20056C   26161.24388156  .00000054  00000+0  00000+0 0  9999
2 46114   0.0193 321.8102 0002113 112.8333 146.7690  1.00273455 21223
GAOFEN-13 01            
1 46610U 20071A   26161.29197588 -.00000345  00000+0  00000+0 0  9993
2 46610   0.5025  84.9218 0041254 123.3868 273.6490  1.00274568 20859
TIANTONG-1 2            
1 46916U 20082A   26159.65363682 -.00000340  00000+0  00000+0 0  9996
2 46916   0.8019 326.2020 0001383 110.9677 180.0960  1.00267814 20563
LUCAS (JDRS-1)          
1 47202U 20089A   26161.28629306 -.00000218  00000+0  00000+0 0  9996
2 47202   0.0234 281.1166 0002235 148.8303  22.5680  1.00272642 20357
SXM-7                   
1 47240U 20096A   26161.25176826 -.00000188  00000+0  00000+0 0  9993
2 47240   0.0422 143.4090 0004042 344.1554 136.5462  1.00270855  7376
CMS-01                  
1 47256U 20099A   26161.07122841 -.00000147  00000+0  00000+0 0  9996
2 47256   0.0791  98.3497 0003635 180.1526  88.5702  1.00272052 20127
TURKSAT 5A              
1 47306U 21001A   26161.06091502  .00000172  00000+0  00000+0 0  9991
2 47306   0.0226  63.8245 0000130 109.3639 138.1054  1.00271427 19898
TIANTONG-1 3            
1 47321U 21003A   26161.14224584 -.00000139  00000+0  00000+0 0  9991
2 47321   1.7620 338.8484 0003432 107.1466 305.2741  1.00272115 19898
TJS-6                   
1 47613U 21010A   26161.24698740  .00000062  00000+0  00000+0 0  9997
2 47613   0.2693 264.4589 0003640 213.8508  47.7670  1.00277121 19733
SBIRS GEO-5 (USA 315)   
1 48618U 21042A   26161.10580476 -.00000256  00000+0  00000+0 0  9995
2 48618   5.1132 329.0636 0001479 122.6406 298.6726  1.00271042 18705
FENGYUN 4B              
1 48808U 21047A   26161.28937588 -.00000311  00000+0  00000+0 0  9992
2 48808   0.1351  76.6139 0005096 286.3879 104.3454  1.00263169 18508
SXM-8                   
1 48838U 21049A   26161.18043657 -.00000188  00000+0  00000+0 0  9993
2 48838   0.0176   6.5482 0004814  26.2174 205.6025  1.00270292 18519
