OBJECT_NAME,OBJECT_ID,EPOCH,MEAN_MOTION,ECCENTRICITY,INCLINATION,RA_OF_ASC_NODE,ARG_OF_PERICENTER,MEAN_ANOMALY,EPHEMERIS_TYPE,CLASSIFICATION_TYPE,NORAD_CAT_ID,ELEMENT_SET_NO,REV_AT_EPOCH,BSTAR,MEAN_MOTION_DOT,MEAN_MOTION_DDOT
BEIDOU-3 IGSO-3,2019-073A,2026-05-16T19:27:04.075776,1.00246251,.0042953,54.8566,281.2355,189.4588,170.3676,0,U,44709,999,2414,0,-.217E-5,0
TIBA-1,2019-080A,2026-06-10T06:36:54.692064,1.00275021,.00020964,0.0511,351.4900,111.8791,290.0371,0,U,44800,999,2398,0,.173E-5,0
INMARSAT GX5,2019-080B,2026-06-10T06:29:55.361760,1.00270825,.00023403,0.0399,15.8252,61.4815,289.8423,0,U,44801,999,671,0,.92E-6,0
JCSAT-18 (KACIFIC 1),2019-091A,2026-06-10T05:08:38.959584,1.00270114,.00003884,0.0143,254.3475,325.2016,266.2051,0,U,44868,999,2394,0,-.183E-5,0
ELEKTRO-L 3,2019-095A,2026-06-09T23:57:54.838368,1.00272335,.00013543,0.2372,81.3083,354.2056,258.2852,0,U,44903,999,2363,0,-.79E-6,0
SHIJIAN-20 (SJ-20),2019-097A,2026-06-09T06:42:21.555360,1.00275165,.0013815,4.8978,75.1590,53.4150,274.4638,0,U,44910,999,2361,0,.151E-5,0
TJS-5,2020-002A,2026-06-09T10:25:36.238080,1.00273083,.0007543,0.0306,290.7235,116.5233,114.4723,0,U,44978,999,2363,0,-.325E-5,0
GSAT-30,2020-005A,2026-06-09T03:27:54.806976,1.00269386,.00034085,0.0531,105.7770,339.2323,307.4766,0,U,45026,999,2342,0,-.147E-5,0
EUTELSAT KONNECT,2020-005B,2026-06-09T03:06:19.377216,1.00273234,.00014502,0.0706,99.2729,119.5425,92.5263,0,U,45027,999,2425,0,.67E-6,0
JCSAT-17,2020-013A,2026-06-10T07:05:33.724608,1.00271054,.00026844,5.3923,356.7942,79.8007,64.4674,0,U,45245,999,2316,0,-.306E-5,0
GEO-KOMPSAT-2B,2020-013B,2026-06-09T19:04:50.104704,1.00269964,.0000357,0.0421,156.7250,146.7417,9.1642,0,U,45246,999,2320,0,-.326E-5,0
BEIDOU-3 G2,2020-017A,2026-06-09T23:59:02.230368,1.00273489,.00024625,2.8486,47.2283,30.2444,260.7141,0,U,45344,999,2318,0,-.125E-5,0
AEHF-6 (USA 298),2020-022B,2026-06-10T07:06:03.676896,1.00274457,.00431617,2.5644,301.0465,17.2710,184.6024,0,U,45465,999,2294,0,-.281E-5,0
BEIDOU-3 G3,2020-040A,2026-06-10T01:50:25.881216,1.00271037,.00027836,2.4287,67.4310,338.7722,350.4277,0,U,45807,999,2199,0,-.337E-5,0
APSTAR-6D,2020-045A,2026-06-09T16:33:34.992576,1.00268962,.00021036,0.0502,104.3507,344.4035,191.7177,0,U,45863,999,2178,0,-.301E-5,0
KOREASAT 116,2020-048A,2026-06-10T06:59:56.763744,1.00271872,.00008747,0.0062,327.4441,107.3392,45.0833,0,U,45920,999,2157,0,-.344E-5,0
EXPRESS 103,2020-053A,2026-06-10T03:28:42.169728,1.00272643,.00005212,0.0170,275.5638,131.4994,0.1378,0,U,45985,999,2157,0,-.263E-5,0
EXPRESS 80,2020-053B,2026-06-10T01:26:24.547776,1.00272689,.0002386,0.0170,307.9148,208.6614,203.4463,0,U,45986,999,2155,0,-.119E-5,0
BSAT-4B,2020-056A,2026-06-09T12:08:55.597920,1.00273071,.00037947,0.0407,168.6637,305.2086,76.0750,0,U,46112,999,2131,0,-.333E-5,0
MEV-2,2020-056B,2026-06-10T06:26:33.184896,1.00273655,.00003711,0.0141,328.0803,180.5937,205.5905,0,U,46113,999,8044,0,.7E-7,0
GALAXY 30 (G-30),2020-056C,2026-06-10T05:51:11.366784,1.00273455,.00021139,0.0193,321.8102,112.8333,146.7690,0,U,46114,999,2122,0,.54E-6,0
GAOFEN-13 01,2020-071A,2026-06-10T07:00:26.716032,1.00274568,.00412547,0.5025,84.9218,123.3868,273.6490,0,U,46610,999,2085,0,-.345E-5,0
TIANTONG-1 2,2020-082A,2026-06-08T15:41:14.221248,1.00267814,.00013838,0.8019,326.2020,110.9677,180.0960,0,U,46916,999,2056,0,-.34E-5,0
LUCAS (JDRS-1),2020-089A,2026-06-10T06:52:15.720384,1.00272642,.00022353,0.0234,281.1166,148.8303,22.5680,0,U,47202,999,2035,0,-.218E-5,0
SXM-7,2020-096A,2026-06-10T06:02:32.777664,1.00270855,.00040421,0.0422,143.4090,344.1554,136.5462,0,U,47240,999,737,0,-.188E-5,0
CMS-01,2020-099A,2026-06-10T01:42:34.134624,1.00272052,.00036359,0.0791,98.3497,180.1526,88.5702,0,U,47256,999,2012,0,-.147E-5,0
TURKSAT 5A,2021-001A,2026-06-10T01:27:43.057728,1.00271427,.00001307,0.0226,63.8245,109.3639,138.1054,0,U,47306,999,1989,0,.172E-5,0
TIANTONG-1 3,2021-003A,2026-06-10T03:24:50.040576,1.00272115,.00034322,1.7620,338.8484,107.1466,305.2741,0,U,47321,999,1989,0,-.139E-5,0
TJS-6,2021-010A,2026-06-10T05:55:39.711360,1.00277121,.00036403,0.2693,264.4589,213.8508,47.7670,0,U,47613,999,1973,0,.62E-6,0
SBIRS GEO-5 (USA 315),2021-042A,2026-06-10T02:32:21.531264,1.00271042,.00014791,5.1132,329.0636,122.6406,298.6726,0,U,48618,999,1870,0,-.256E-5,0
FENGYUN 4B,2021-047A,2026-06-10T06:56:42.076032,1.00263169,.00050962,0.1351,76.6139,286.3879,104.3454,0,U,48808,999,1850,0,-.311E-5,0
SXM-8,2021-049A,2026-06-10T04:19:49.719648,1.00270292,.00048144,0.0176,6.5482,26.2174,205.6025,0,U,48838,999,1851,0,-.188E-5,0
